[{"OBJECT_NAME":"STARLINK-5258","OBJECT_ID":"2022-141AQ","EPOCH":"2026-03-09T22:25:07.852224","MEAN_MOTION":15.08839014,"ECCENTRICITY":0.00013987,"INCLINATION":53.2189,"RA_OF_ASC_NODE":353.1029,"ARG_OF_PERICENTER":102.7806,"MEAN_ANOMALY":257.3342,"EPHEMERIS_TYPE":0,"CLASSIFICATION_TYPE":"U","NORAD_CAT_ID":54195,"ELEMENT_SET_NO":999,"REV_AT_EPOCH":18603,"BSTAR":-2.4793087e-5,"MEAN_MOTION_DOT":-6.82e-6,"MEAN_MOTION_DDOT":0},{"OBJECT_NAME":"FENGYUN 1C DEB","OBJECT_ID":"1999-025AZQ","EPOCH":"2026-03-09T07:24:32.374656","MEAN_MOTION":14.90450247,"ECCENTRICITY":0.01635078,"INCLINATION":98.8142,"RA_OF_ASC_NODE":23.899,"ARG_OF_PERICENTER":102.803,"MEAN_ANOMALY":259.1511,"EPHEMERIS_TYPE":0,"CLASSIFICATION_TYPE":"U","NORAD_CAT_ID":30926,"ELEMENT_SET_NO":999,"REV_AT_EPOCH":2056,"BSTAR":0.00046140842,"MEAN_MOTION_DOT":5.728e-5,"MEAN_MOTION_DDOT":0}]
